{"type":"FeatureCollection","crs":{"type":"name","properties":{"name":"EPSG:4326"}},"features":[{"type":"Feature","id":1,"geometry":{"type":"Polygon","coordinates":[[[-113.969883500002,51.1598860000009],[-113.969497300002,51.1660893000009],[-113.969068100002,51.1707984000009],[-113.968188300002,51.1745385000009],[-113.949606000002,51.1747941000009],[-113.948039600002,51.1742425000009],[-113.946022600002,51.1737717000009],[-113.945808000002,51.1725609000009],[-113.945035500002,51.1723725000009],[-113.945614900002,51.1705563000009],[-113.941173100002,51.1704486000009],[-113.940100200002,51.1713770000009],[-113.940186100002,51.1726012000009],[-113.938061800002,51.1721304000009],[-113.937117600002,51.1721707000009],[-113.936538300002,51.1727492000009],[-113.935358100002,51.1703545000009],[-113.935014800002,51.1703545000009],[-113.935014800002,51.1644343000009],[-113.935830200002,51.1640710000009],[-113.942460600002,51.1640440000009],[-113.942460600002,51.1632232000009],[-113.949756200002,51.1633847000009],[-113.949756200002,51.1640844000009],[-113.951043700002,51.1641651000009],[-113.950961000002,51.1653390000009],[-113.965742200002,51.1652551000009],[-113.965785100002,51.1644343000009],[-113.967072500002,51.1623755000009],[-113.967094000002,51.1621534000009],[-113.966621900002,51.1621467000009],[-113.966514600002,51.1596034000009],[-113.969486500002,51.1596707000009],[-113.969872800002,51.1596505000009],[-113.969883500002,51.1598860000009]]]},"properties":{"OID":1,"Name":"SEVERE Damage","FolderPath":"Damage Contours","SymbolID":0,"AltMode":0,"Base":0,"Clamped":-1,"Extruded":0,"Snippet":"","PopupInfo":"Widespread severe siding damage, multiple broken windows on each street, multiple car windshields smashed, widespread roof damage","Shape__Area":0.00032473222381668165,"Shape__Length":0.10467067666364639,"DamageType":"Severe"}},{"type":"Feature","id":2,"geometry":{"type":"Polygon","coordinates":[[[-113.969872800002,51.1596505000009],[-113.966514600002,51.1596034000009],[-113.966621900002,51.1621467000009],[-113.967008800002,51.1622717000009],[-113.965785100002,51.1644343000009],[-113.965742200002,51.1652551000009],[-113.950961000002,51.1653390000009],[-113.951043700002,51.1641651000009],[-113.949756200002,51.1640844000009],[-113.949756200002,51.1633847000009],[-113.942460600002,51.1632232000009],[-113.942460600002,51.1640440000009],[-113.935734200002,51.1640748000009],[-113.935556000002,51.1617987000009],[-113.929354800002,51.1616709000009],[-113.929231900002,51.1610308000009],[-113.935059000002,51.1611840000009],[-113.936560400002,51.1608385000009],[-113.945526300002,51.1607921000009],[-113.945557000002,51.1592650000009],[-113.955429000002,51.1592714000009],[-113.955559000002,51.1579770000009],[-113.958466900002,51.1578579000009],[-113.959893800002,51.1579622000009],[-113.960096100002,51.1576902000009],[-113.960675400002,51.1577440000009],[-113.963091000002,51.1555128000009],[-113.963627500002,51.1557080000009],[-113.964764700002,51.1558762000009],[-113.965975500002,51.1562434000009],[-113.966232900002,51.1552879000009],[-113.967606200002,51.1553417000009],[-113.967971000002,51.1545208000009],[-113.969258500002,51.1548976000009],[-113.969872800002,51.1596505000009]]]},"properties":{"OID":2,"Name":"MODERATE Damage","FolderPath":"Damage Contours","SymbolID":3,"AltMode":0,"Base":0,"Clamped":-1,"Extruded":0,"Snippet":"","PopupInfo":"Moderate siding damage (most houses with 10-20% loss of vinyl siding, a few houses with minor siding damage and a few with severe damage (\u003e 20% loss). Some broken windows, only a few on each street. A few car windshields smashed. Sporadic visible roof damage.","Shape__Area":0.00018901699968409957,"Shape__Length":0.10151558534295547,"DamageType":"Moderate"}},{"type":"Feature","id":3,"geometry":{"type":"Polygon","coordinates":[[[-113.969258500002,51.1548976000009],[-113.967971000002,51.1545208000009],[-113.967606200002,51.1553417000009],[-113.966232900002,51.1552879000009],[-113.965975500002,51.1562434000009],[-113.963091000002,51.1555128000009],[-113.960675400002,51.1577440000009],[-113.960096100002,51.1576902000009],[-113.959893800002,51.1579622000009],[-113.955559000002,51.1579770000009],[-113.955429000002,51.1592714000009],[-113.945557000002,51.1592650000009],[-113.945526300002,51.1607921000009],[-113.936560400002,51.1608385000009],[-113.935059000002,51.1611840000009],[-113.929231900002,51.1610308000009],[-113.929354800002,51.1616709000009],[-113.922696100002,51.1618147000009],[-113.922487100002,51.1584237000009],[-113.927679900002,51.1541440000009],[-113.957871200002,51.1539927000009],[-113.957999900002,51.1524180000009],[-113.959931100002,51.1522295000009],[-113.961368800002,51.1500760000009],[-113.962334400002,51.1500894000009],[-113.966325500002,51.1486492000009],[-113.966647400002,51.1476531000009],[-113.969715800002,51.1476800000009],[-113.969050600002,51.1538312000009],[-113.969258500002,51.1548976000009]]]},"properties":{"OID":3,"Name":"MINOR Damage","FolderPath":"Damage Contours","SymbolID":2,"AltMode":0,"Base":0,"Clamped":-1,"Extruded":0,"Snippet":"","PopupInfo":"Widespread minor siding damage (\u003c10% loss). A few houses with moderate siding damage and some houses with no visible siding damage. The occasional broken window (one or less on each street), no car windshields smashed. No visible roof damage.","Shape__Area":0.000288044319859182,"Shape__Length":0.11549685065611666,"DamageType":"Minor"}},{"type":"Feature","id":4,"geometry":{"type":"Polygon","coordinates":[[[-113.969715800002,51.1476800000009],[-113.966647400002,51.1476531000009],[-113.966325500002,51.1486492000009],[-113.962334400002,51.1500894000009],[-113.961368800002,51.1500760000009],[-113.959931100002,51.1522295000009],[-113.957999900002,51.1524180000009],[-113.957871200002,51.1539927000009],[-113.927679900002,51.1541440000009],[-113.926482000002,51.1534297000009],[-113.924507900002,51.1530259000009],[-113.922962900002,51.1515723000009],[-113.922662500002,51.1466593000009],[-113.935065100002,51.1467670000009],[-113.935065100002,51.1393359000009],[-113.933005100002,51.1391474000009],[-113.929280400002,51.1376630000009],[-113.929022900002,51.1361685000009],[-113.926372900002,51.1352058000009],[-113.926566000002,51.1345191000009],[-113.926566000002,51.1340479000009],[-113.925943800002,51.1336978000009],[-113.925729200002,51.1326071000009],[-113.923325900002,51.1325398000009],[-113.922725100002,51.1282577000009],[-113.923372100002,51.1282309000009],[-113.926698100002,51.1282040000009],[-113.926719500002,51.1263725000009],[-113.927771000002,51.1263860000009],[-113.927856800002,51.1253221000009],[-113.928071400002,51.1247295000009],[-113.929101300002,51.1244332000009],[-113.929380300002,51.1238137000009],[-113.928500500002,51.1233558000009],[-113.928715100002,51.1228171000009],[-113.928457600002,51.1222784000009],[-113.932154600002,51.1206224000009],[-113.932229700002,51.1193832000009],[-113.934042900002,51.1193159000009],[-113.934075100002,51.1182518000009],[-113.934054700002,51.1181369000009],[-113.934062800002,51.1180056000009],[-113.934105700002,51.1179517000009],[-113.934255900002,51.1178844000009],[-113.934599300002,51.1178036000009],[-113.934931800002,51.1178575000009],[-113.937420900002,51.1178979000009],[-113.937868000002,51.1184440000009],[-113.938257800002,51.1187599000009],[-113.939352100002,51.1188003000009],[-113.942120200002,51.1192313000009],[-113.944416100002,51.1205647000009],[-113.946722800002,51.1205917000009],[-113.946969600002,51.1211304000009],[-113.947248500002,51.1230968000009],[-113.948300000002,51.1237971000009],[-113.949673300002,51.1247802000009],[-113.950252600002,51.1250630000009],[-113.951851200002,51.1251304000009],[-113.958303000002,51.1252671000009],[-113.958345100002,51.1288896000009],[-113.961241800002,51.1289300000009],[-113.961984300002,51.1311554000009],[-113.965803800002,51.1308591000009],[-113.966125600002,51.1322191000009],[-113.968571800002,51.1324211000009],[-113.970003000002,51.1324170000009],[-113.969715800002,51.1476800000009]]]},"properties":{"OID":4,"Name":"MODERATE Damage","FolderPath":"Damage Contours","SymbolID":3,"AltMode":0,"Base":0,"Clamped":-1,"Extruded":0,"Snippet":"","PopupInfo":"Moderate siding damage (most houses with 10-20% loss of vinyl siding, a few houses with minor siding damage and a few with severe damage (\u003e 20% loss). Some broken windows, only a few on each street. A few car windshields smashed. Sporadic visible roof damage.","Shape__Area":0.0011999840062344447,"Shape__Length":0.17791216401962084,"DamageType":"Moderate"}},{"type":"Feature","id":5,"geometry":{"type":"Polygon","coordinates":[[[-113.970003000002,51.1324170000009],[-113.966125600002,51.1322191000009],[-113.965803800002,51.1308591000009],[-113.961984300002,51.1311554000009],[-113.961241800002,51.1289300000009],[-113.958345100002,51.1288896000009],[-113.958303000002,51.1252671000009],[-113.950182500002,51.1250277000009],[-113.947248500002,51.1230968000009],[-113.946969600002,51.1211304000009],[-113.946722800002,51.1205917000009],[-113.944416100002,51.1205647000009],[-113.942120200002,51.1192313000009],[-113.939352100002,51.1188003000009],[-113.938257800002,51.1187599000009],[-113.937785300002,51.1183373000009],[-113.937420900002,51.1178979000009],[-113.934931800002,51.1178575000009],[-113.934599300002,51.1178036000009],[-113.934255900002,51.1178844000009],[-113.934062800002,51.1180056000009],[-113.934042900002,51.1193159000009],[-113.932229700002,51.1193832000009],[-113.932154600002,51.1206224000009],[-113.928457600002,51.1222784000009],[-113.928715100002,51.1228171000009],[-113.928500500002,51.1233558000009],[-113.929380300002,51.1238137000009],[-113.929101300002,51.1244332000009],[-113.928071400002,51.1247295000009],[-113.927771000002,51.1263860000009],[-113.926719500002,51.1263725000009],[-113.926698100002,51.1282040000009],[-113.922800200002,51.1282672000009],[-113.922832300002,51.1189071000009],[-113.923337000002,51.1189430000009],[-113.923325800002,51.1169810000009],[-113.923883700002,51.1169810000009],[-113.923745000002,51.1144487000009],[-113.925601100002,51.1132094000009],[-113.926405800002,51.1131555000009],[-113.926759800002,51.1128996000009],[-113.927049500002,51.1130411000009],[-113.927478700002,51.1133711000009],[-113.928616600002,51.1139674000009],[-113.929181400002,51.1139271000009],[-113.930329500002,51.1139945000009],[-113.930576200002,51.1144693000009],[-113.931247000002,51.1145157000009],[-113.931901500002,51.1153374000009],[-113.933961400002,51.1153374000009],[-113.933993600002,51.1155597000009],[-113.936750900002,51.1156270000009],[-113.938896700002,51.1163342000009],[-113.940870800002,51.1165631000009],[-113.943595900002,51.1167720000009],[-113.944883400002,51.1167584000009],[-113.946879000002,51.1169538000009],[-113.947175000002,51.1176960000009],[-113.950623300002,51.1177687000009],[-113.951288500002,51.1182671000009],[-113.952052500002,51.1188633000009],[-113.952792800002,51.1194358000009],[-113.953103800002,51.1198331000009],[-113.954632900002,51.1197449000009],[-113.955920300002,51.1198526000009],[-113.956735700002,51.1202500000009],[-113.957390000002,51.1201900000009],[-113.957690500002,51.1205665000009],[-113.960276200002,51.1202432000009],[-113.961992800002,51.1223645000009],[-113.966413100002,51.1212466000009],[-113.967153700002,51.1214293000009],[-113.968140700002,51.1214158000009],[-113.969761600002,51.1214901000009],[-113.970003000002,51.1324170000009]]]},"properties":{"OID":5,"Name":"MINOR Damage","FolderPath":"Damage Contours","SymbolID":2,"AltMode":0,"Base":0,"Clamped":-1,"Extruded":0,"Snippet":"","PopupInfo":"Widespread minor siding damage (\u003c10% loss). A few houses with moderate siding damage and some houses with no visible siding damage. The occasional broken window (one or less on each street), no car windshields smashed. No visible roof damage.","Shape__Area":0.00032090403965412406,"Shape__Length":0.14285376020001544,"DamageType":"Minor"}},{"type":"Feature","id":6,"geometry":{"type":"Polygon","coordinates":[[[-113.933348100002,51.1155291000009],[-113.933991900002,51.1155476000009],[-113.933993600002,51.1155597000009],[-113.933348100002,51.1155291000009]]]},"properties":{"OID":6,"Name":"THRESHOLD Damage","FolderPath":"Damage Contours","SymbolID":5,"AltMode":0,"Base":0,"Clamped":-1,"Extruded":0,"Snippet":"","PopupInfo":"Sporadic minor siding damage, minor-moderate tree shredding, impact marks in fences or garage doors, no broken windows, no roof damage.","Shape__Area":3.8794496504124254E-09,"Shape__Length":0.0013025091896731458,"DamageType":"Threshold"}},{"type":"Feature","id":7,"geometry":{"type":"Polygon","coordinates":[[[-113.933991900002,51.1155476000009],[-113.933961400002,51.1153374000009],[-113.931901500002,51.1153374000009],[-113.931247000002,51.1145157000009],[-113.930576200002,51.1144693000009],[-113.930329500002,51.1139945000009],[-113.928616600002,51.1139674000009],[-113.926759800002,51.1128996000009],[-113.926939300002,51.1125357000009],[-113.929106500002,51.1125492000009],[-113.929246000002,51.1128590000009],[-113.931338100002,51.1128186000009],[-113.931474000002,51.1140330000009],[-113.933891600002,51.1141118000009],[-113.934085000002,51.1145490000009],[-113.937786200002,51.1145293000009],[-113.938505000002,51.1148998000009],[-113.939610100002,51.1148661000009],[-113.939728100002,51.1156204000009],[-113.943536800002,51.1157821000009],[-113.943867000002,51.1153500000009],[-113.945736200002,51.1153982000009],[-113.946712600002,51.1155935000009],[-113.947656700002,51.1156608000009],[-113.947764000002,51.1160919000009],[-113.952012600002,51.1160380000009],[-113.952634900002,51.1163613000009],[-113.952720700002,51.1177958000009],[-113.953364400002,51.1177487000009],[-113.953439500002,51.1179978000009],[-113.954158400002,51.1184154000009],[-113.955692600002,51.1179911000009],[-113.957548700002,51.1177554000009],[-113.957816000002,51.1181810000009],[-113.958417700002,51.1181999000009],[-113.959115100002,51.1186646000009],[-113.959179500002,51.1195535000009],[-113.959490600002,51.1199980000009],[-113.961067700002,51.1197892000009],[-113.965745500002,51.1187791000009],[-113.966700400002,51.1197758000009],[-113.969790300002,51.1199711000009],[-113.969761600002,51.1214901000009],[-113.968092300002,51.1214018000009],[-113.967153700002,51.1214293000009],[-113.966413100002,51.1212466000009],[-113.961992800002,51.1223645000009],[-113.960276200002,51.1202432000009],[-113.957690500002,51.1205665000009],[-113.957390000002,51.1201900000009],[-113.956735700002,51.1202500000009],[-113.955920300002,51.1198526000009],[-113.954722900002,51.1197517000009],[-113.953103800002,51.1198331000009],[-113.952866800002,51.1193678000009],[-113.952212300002,51.1189772000009],[-113.950623300002,51.1177687000009],[-113.947175000002,51.1176960000009],[-113.946879000002,51.1169538000009],[-113.944959600002,51.1167884000009],[-113.943595900002,51.1167720000009],[-113.938896700002,51.1163342000009],[-113.936750900002,51.1156270000009],[-113.933991900002,51.1155476000009]]]},"properties":{"OID":7,"Name":"THRESHOLD Damage","FolderPath":"Damage Contours","SymbolID":5,"AltMode":0,"Base":0,"Clamped":-1,"Extruded":0,"Snippet":"","PopupInfo":"Sporadic minor siding damage, minor-moderate tree shredding, impact marks in fences or garage doors, no broken windows, no roof damage.","Shape__Area":6.7675387072085869E-05,"Shape__Length":0.09853074118302807,"DamageType":"Threshold"}},{"type":"Feature","id":8,"geometry":{"type":"Polygon","coordinates":[[[-114.061979700002,51.1743063000009],[-114.051947000002,51.1745663000009],[-114.046887700002,51.1754225000009],[-114.041697200002,51.1758908000009],[-114.036378100002,51.1758614000009],[-114.035562700002,51.1726461000009],[-114.039297200002,51.1727848000009],[-114.040413000002,51.1722601000009],[-114.043696100002,51.1731749000009],[-114.043696100002,51.1744261000009],[-114.048416800002,51.1741436000009],[-114.060930400002,51.1722864000009],[-114.073929800002,51.1723417000009],[-114.079723400002,51.1730413000009],[-114.079637600002,51.1710098000009],[-114.079380100002,51.1699335000009],[-114.080066700002,51.1691666000009],[-114.082191000002,51.1692069000009],[-114.082427100002,51.1695567000009],[-114.083070800002,51.1697989000009],[-114.084422700002,51.1702159000009],[-114.086268100002,51.1691800000009],[-114.090559600002,51.1681843000009],[-114.096439000002,51.1680094000009],[-114.098134200002,51.1667985000009],[-114.100043900002,51.1671887000009],[-114.107566200002,51.1695041000009],[-114.109998000002,51.1708140000009],[-114.108909100002,51.1728630000009],[-114.105454400002,51.1782709000009],[-114.107171000002,51.1790242000009],[-114.110497000002,51.1796430000009],[-114.121268700002,51.1796161000009],[-114.124487400002,51.1797506000009],[-114.125002400002,51.1801003000009],[-114.126504400002,51.1800465000009],[-114.127148100002,51.1818221000009],[-114.127834800002,51.1821045000009],[-114.127985000002,51.1830461000009],[-114.118093000002,51.1833689000009],[-114.110625700002,51.1834765000009],[-114.094714900002,51.1835857000009],[-114.094596900002,51.1851123000009],[-114.094682800002,51.1876677000009],[-114.091228100002,51.1876542000009],[-114.088717500002,51.1872373000009],[-114.088073800002,51.1868876000009],[-114.083675000002,51.1856772000009],[-114.084232900002,51.1870759000009],[-114.083546200002,51.1879904000009],[-114.082795200002,51.1883536000009],[-114.082687900002,51.1900750000009],[-114.082338300002,51.1910725000009],[-114.081909200002,51.1928879000009],[-114.082595800002,51.1943537000009],[-114.082402700002,51.1955774000009],[-114.077102600002,51.1952950000009],[-114.077016800002,51.1919466000009],[-114.073304600002,51.1914356000009],[-114.073476300002,51.1899294000009],[-114.069227700002,51.1899025000009],[-114.069152600002,51.1903261000009],[-114.064635700002,51.1903059000009],[-114.064034900002,51.1905884000009],[-114.062833300002,51.1910321000009],[-114.062618700002,51.1907228000009],[-114.055609000002,51.1908113000009],[-114.050523500002,51.1912551000009],[-114.048077300002,51.1914837000009],[-114.048445000002,51.1834860000009],[-114.069079000002,51.1829800000009],[-114.069375200002,51.1768247000009],[-114.061979700002,51.1743063000009]]]},"properties":{"OID":8,"Name":"SEVERE Damage","FolderPath":"Damage Contours","SymbolID":0,"AltMode":0,"Base":0,"Clamped":-1,"Extruded":0,"Snippet":"","PopupInfo":"Widespread severe siding damage, multiple broken windows on each street, multiple car windshields smashed, widespread roof damage","Shape__Area":0.0010059329565592634,"Shape__Length":0.28672370528048385,"DamageType":"Severe"}},{"type":"Feature","id":9,"geometry":{"type":"Polygon","coordinates":[[[-114.127985000002,51.1830461000009],[-114.127834800002,51.1821045000009],[-114.127148100002,51.1818221000009],[-114.126504400002,51.1800465000009],[-114.125002400002,51.1801003000009],[-114.124487400002,51.1797506000009],[-114.121089700002,51.1796000000009],[-114.110497000002,51.1796430000009],[-114.107171000002,51.1790242000009],[-114.105454400002,51.1782709000009],[-114.109998000002,51.1708140000009],[-114.107566200002,51.1695041000009],[-114.100525000002,51.1673318000009],[-114.098134200002,51.1667985000009],[-114.096439000002,51.1680094000009],[-114.090559600002,51.1681843000009],[-114.086268100002,51.1691800000009],[-114.084422700002,51.1702159000009],[-114.082427100002,51.1695567000009],[-114.082191000002,51.1692069000009],[-114.080066700002,51.1691666000009],[-114.079380100002,51.1699335000009],[-114.079723400002,51.1730413000009],[-114.074062900002,51.1722951000009],[-114.060930400002,51.1722864000009],[-114.048416800002,51.1741436000009],[-114.043696100002,51.1744261000009],[-114.043696100002,51.1731749000009],[-114.040413000002,51.1722601000009],[-114.039297200002,51.1727848000009],[-114.035820200002,51.1726461000009],[-114.036723900002,51.1723364000009],[-114.037065500002,51.1702945000009],[-114.040938600002,51.1703214000009],[-114.041314100002,51.1706039000009],[-114.041893500002,51.1704358000009],[-114.043259800002,51.1705686000009],[-114.044579400002,51.1708310000009],[-114.047047100002,51.1704139000009],[-114.047347500002,51.1699027000009],[-114.048034100002,51.1699565000009],[-114.048956800002,51.1699834000009],[-114.050780700002,51.1691223000009],[-114.053098100002,51.1685841000009],[-114.052432900002,51.1665121000009],[-114.051896500002,51.1646552000009],[-114.053119600002,51.1644130000009],[-114.056037800002,51.1631750000009],[-114.056364800002,51.1627800000009],[-114.062330100002,51.1606539000009],[-114.069389700002,51.1602098000009],[-114.075876300002,51.1592923000009],[-114.079054000002,51.1584110000009],[-114.081562500002,51.1590366000009],[-114.082892900002,51.1601131000009],[-114.085339100002,51.1598978000009],[-114.085854100002,51.1605438000009],[-114.086841100002,51.1606514000009],[-114.087227400002,51.1615396000009],[-114.089587700002,51.1616741000009],[-114.090875200002,51.1611897000009],[-114.092613200002,51.1607591000009],[-114.098149300002,51.1611762000009],[-114.098428300002,51.1618760000009],[-114.102998800002,51.1620240000009],[-114.103041700002,51.1627910000009],[-114.102827100002,51.1636388000009],[-114.103299200002,51.1640963000009],[-114.103642500002,51.1647422000009],[-114.108148600002,51.1659666000009],[-114.110594800002,51.1623604000009],[-114.114031800002,51.1605615000009],[-114.114975900002,51.1612344000009],[-114.117572300002,51.1612882000009],[-114.118645200002,51.1608845000009],[-114.121091300002,51.1620014000009],[-114.124031000002,51.1637238000009],[-114.129652900002,51.1625800000009],[-114.132421000002,51.1614497000009],[-114.132678500002,51.1607903000009],[-114.135274900002,51.1603866000009],[-114.135129100002,51.1595157000009],[-114.138905600002,51.1576989000009],[-114.141609300002,51.1580084000009],[-114.144270000002,51.1582372000009],[-114.146136800002,51.1585333000009],[-114.146630400002,51.1595695000009],[-114.147016600002,51.1599597000009],[-114.147939300002,51.1602020000009],[-114.149962700002,51.1607216000009],[-114.151228700002,51.1619731000009],[-114.150577000002,51.1631680000009],[-114.150529000002,51.1644140000009],[-114.147292200002,51.1669808000009],[-114.147077700002,51.1681648000009],[-114.147163500002,51.1703444000009],[-114.145017700002,51.1708019000009],[-114.144760200002,51.1729276000009],[-114.145660000002,51.1758720000009],[-114.145463000002,51.1765760000009],[-114.146498300002,51.1776629000009],[-114.143215300002,51.1791829000009],[-114.143322600002,51.1799093000009],[-114.141369900002,51.1802321000009],[-114.141305600002,51.1832182000009],[-114.127985000002,51.1830461000009]]]},"properties":{"OID":9,"Name":"MODERATE Damage","FolderPath":"Damage Contours","SymbolID":3,"AltMode":0,"Base":0,"Clamped":-1,"Extruded":0,"Snippet":"","PopupInfo":"Moderate siding damage (most houses with 10-20% loss of vinyl siding, a few houses with minor siding damage and a few with severe damage (\u003e 20% loss). Some broken windows, only a few on each street. A few car windshields smashed. Sporadic visible roof damage.","Shape__Area":0.0013485802596733265,"Shape__Length":0.2934798329824489,"DamageType":"Moderate"}},{"type":"Feature","id":10,"geometry":{"type":"Polygon","coordinates":[[[-114.141305600002,51.1832182000009],[-114.141369900002,51.1802321000009],[-114.143322600002,51.1799093000009],[-114.143215300002,51.1791829000009],[-114.146498300002,51.1776629000009],[-114.145463000002,51.1765760000009],[-114.145660000002,51.1758720000009],[-114.144760200002,51.1729276000009],[-114.145017700002,51.1708019000009],[-114.147182700002,51.1705179000009],[-114.147292200002,51.1669808000009],[-114.150580000002,51.1643660000009],[-114.150577000002,51.1631680000009],[-114.151228700002,51.1619731000009],[-114.149962700002,51.1607216000009],[-114.147120200002,51.1599717000009],[-114.146630400002,51.1595695000009],[-114.146136800002,51.1585333000009],[-114.138905600002,51.1576989000009],[-114.135129100002,51.1595157000009],[-114.135274900002,51.1603866000009],[-114.132678500002,51.1607903000009],[-114.132421000002,51.1614497000009],[-114.129652900002,51.1625800000009],[-114.124031000002,51.1637238000009],[-114.118645200002,51.1608845000009],[-114.117572300002,51.1612882000009],[-114.114975900002,51.1612344000009],[-114.114031800002,51.1605615000009],[-114.110594800002,51.1623604000009],[-114.108148600002,51.1659666000009],[-114.103642500002,51.1647422000009],[-114.103313700002,51.1639935000009],[-114.102827100002,51.1636388000009],[-114.103041700002,51.1627910000009],[-114.102998800002,51.1620240000009],[-114.098428300002,51.1618760000009],[-114.098149300002,51.1611762000009],[-114.092613200002,51.1607591000009],[-114.090875200002,51.1611897000009],[-114.089587700002,51.1616741000009],[-114.087227400002,51.1615396000009],[-114.086841100002,51.1606514000009],[-114.085854100002,51.1605438000009],[-114.085339100002,51.1598978000009],[-114.082892900002,51.1601131000009],[-114.081562500002,51.1590366000009],[-114.078852000002,51.1583685000009],[-114.076083900002,51.1592567000009],[-114.069389700002,51.1602098000009],[-114.062330100002,51.1606539000009],[-114.056364800002,51.1627800000009],[-114.056037800002,51.1631750000009],[-114.051896500002,51.1646552000009],[-114.053098100002,51.1685841000009],[-114.050780700002,51.1691223000009],[-114.048956800002,51.1699834000009],[-114.047320800002,51.1698597000009],[-114.047047100002,51.1704139000009],[-114.044579400002,51.1708310000009],[-114.041828800002,51.1704419000009],[-114.041314100002,51.1706039000009],[-114.040938600002,51.1703214000009],[-114.037065500002,51.1702945000009],[-114.037075900002,51.1688408000009],[-114.039565000002,51.1557612000009],[-114.042577800002,51.1467576000009],[-114.047420600002,51.1424849000009],[-114.053895500002,51.1409240000009],[-114.053725700002,51.1396466000009],[-114.070977700002,51.1398351000009],[-114.072050600002,51.1349612000009],[-114.081234500002,51.1380041000009],[-114.087125000002,51.1344670000009],[-114.089560100002,51.1352305000009],[-114.091233800002,51.1356344000009],[-114.096684000002,51.1355536000009],[-114.099795400002,51.1339110000009],[-114.104666300002,51.1337225000009],[-114.106812000002,51.1338302000009],[-114.109043000002,51.1415190000009],[-114.106726200002,51.1452469000009],[-114.106340000002,51.1479929000009],[-114.109664000002,51.1497477000009],[-114.109427900002,51.1514436000009],[-114.108119000002,51.1530318000009],[-114.108483800002,51.1541220000009],[-114.125049100002,51.1542297000009],[-114.134619200002,51.1541759000009],[-114.146592600002,51.1553064000009],[-114.150712500002,51.1540413000009],[-114.152815400002,51.1540951000009],[-114.153630700002,51.1565984000009],[-114.155948200002,51.1582402000009],[-114.159338500002,51.1601781000009],[-114.162836100002,51.1602050000009],[-114.163522700002,51.1638383000009],[-114.166183500002,51.1688975000009],[-114.170045900002,51.1699738000009],[-114.173736600002,51.1707272000009],[-114.176483200002,51.1739023000009],[-114.175710700002,51.1827267000009],[-114.181007900002,51.1833309000009],[-114.180492900002,51.1867741000009],[-114.178089600002,51.1879307000009],[-114.176415900002,51.1891142000009],[-114.165000400002,51.1890869000009],[-114.163047800002,51.1870965000009],[-114.161052200002,51.1834381000009],[-114.141305600002,51.1832182000009]]]},"properties":{"OID":10,"Name":"MINOR Damage","FolderPath":"Damage Contours","SymbolID":2,"AltMode":0,"Base":0,"Clamped":-1,"Extruded":0,"Snippet":"","PopupInfo":"Widespread minor siding damage (\u003c10% loss). A few houses with moderate siding damage and some houses with no visible siding damage. The occasional broken window (one or less on each street), no car windshields smashed. No visible roof damage.","Shape__Area":0.0026691203579503053,"Shape__Length":0.42311534235908455,"DamageType":"Minor"}},{"type":"Feature","id":11,"geometry":{"type":"Polygon","coordinates":[[[-114.162836100002,51.1602050000009],[-114.159338500002,51.1601781000009],[-114.153630700002,51.1565984000009],[-114.152815400002,51.1540951000009],[-114.150712500002,51.1540413000009],[-114.146592600002,51.1553064000009],[-114.134619200002,51.1541759000009],[-114.108483800002,51.1541220000009],[-114.108119000002,51.1530318000009],[-114.109412000002,51.1515500000009],[-114.109664000002,51.1497477000009],[-114.106340000002,51.1479929000009],[-114.106726200002,51.1452469000009],[-114.109043000002,51.1415190000009],[-114.106812000002,51.1338302000009],[-114.099795400002,51.1339110000009],[-114.096684000002,51.1355536000009],[-114.091233800002,51.1356344000009],[-114.087125000002,51.1344670000009],[-114.081234500002,51.1380041000009],[-114.072050600002,51.1349612000009],[-114.071763400002,51.1345535000009],[-114.062483000002,51.1313893000009],[-114.058427500002,51.1305948000009],[-114.056421200002,51.1298474000009],[-114.052695800002,51.1280278000009],[-114.056364000002,51.1257750000009],[-114.056965900002,51.1259539000009],[-114.057266300002,51.1257923000009],[-114.059884100002,51.1257115000009],[-114.059905600002,51.1264387000009],[-114.065377300002,51.1264926000009],[-114.067930700002,51.1267215000009],[-114.068123900002,51.1275564000009],[-114.073402500002,51.1276911000009],[-114.075419500002,51.1276103000009],[-114.076492400002,51.1280547000009],[-114.078316300002,51.1263983000009],[-114.083165700002,51.1263175000009],[-114.086298500002,51.1272736000009],[-114.086813500002,51.1265464000009],[-114.089881900002,51.1272871000009],[-114.089903400002,51.1267619000009],[-114.093765800002,51.1266407000009],[-114.093980400002,51.1250516000009],[-114.097186700002,51.1248768000009],[-114.099718700002,51.1260080000009],[-114.103323600002,51.1273278000009],[-114.105297700002,51.1288899000009],[-114.106113100002,51.1302904000009],[-114.106499300002,51.1314753000009],[-114.112314400002,51.1307347000009],[-114.113623300002,51.1312330000009],[-114.116262600002,51.1307751000009],[-114.119245200002,51.1309367000009],[-114.119717200002,51.1315831000009],[-114.120918900002,51.1315023000009],[-114.123965900002,51.1322833000009],[-114.129115700002,51.1296440000009],[-114.132162700002,51.1272739000009],[-114.134222600002,51.1277587000009],[-114.139801600002,51.1291323000009],[-114.141947400002,51.1298056000009],[-114.145552300002,51.1295093000009],[-114.147655100002,51.1314753000009],[-114.150058400002,51.1323910000009],[-114.156924900002,51.1344915000009],[-114.157740200002,51.1357571000009],[-114.162031800002,51.1355956000009],[-114.164478000002,51.1383691000009],[-114.167567900002,51.1425965000009],[-114.172031100002,51.1424349000009],[-114.172889400002,51.1436734000009],[-114.176837600002,51.1439696000009],[-114.180270800002,51.1435119000009],[-114.180742900002,51.1441580000009],[-114.185120200002,51.1442388000009],[-114.189454700002,51.1437003000009],[-114.195076600002,51.1423811000009],[-114.201170600002,51.1437273000009],[-114.208594900002,51.1463926000009],[-114.213272700002,51.1500270000009],[-114.219001900002,51.1542263000009],[-114.211320000002,51.1541860000009],[-114.209238700002,51.1524901000009],[-114.207822400002,51.1532842000009],[-114.205075900002,51.1541187000009],[-114.187866800002,51.1544148000009],[-114.164597500002,51.1545342000009],[-114.163910800002,51.1560954000009],[-114.164082500002,51.1595405000009],[-114.162836100002,51.1602050000009]]]},"properties":{"OID":11,"Name":"THRESHOLD Damage","FolderPath":"Damage Contours","SymbolID":5,"AltMode":0,"Base":0,"Clamped":-1,"Extruded":0,"Snippet":"","PopupInfo":"Sporadic minor siding damage, minor-moderate tree shredding, impact marks in fences or garage doors, no broken windows, no roof damage.","Shape__Area":0.0022609401612498914,"Shape__Length":0.38724528909296813,"DamageType":"Threshold"}}]}